0 POLAR BEAR
1 17070U 86088A   13282.84709010  .00000075  00000-0  66970-4 0  1446
2 17070 089.5418 031.7522 0038842 200.5972 273.6023 13.74526939349066
0 POLAR BEAR
1 17070U 86088A   13283.86619891  .00000080  00000-0  72447-4 0  1459
2 17070 089.5420 031.7030 0038949 197.5317 276.4489 13.74527220349206
0 POLAR BEAR
1 17070U 86088A   13285.90942203  .00000076  00000-0  68100-4 0  1470
2 17070 089.5424 031.6044 0039167 191.3596 306.9397 13.74527302349486
0 POLAR BEAR
1 17070U 86088A   13286.92728120  .00000084  00000-0  76772-4 0  1487
2 17070 089.5425 031.5554 0039274 188.3180 303.5847 13.74527291349622
0 POLAR BEAR
1 17070U 86088A   13288.14823895  .00000110  00000-0  10360-3 0  1499
2 17070 089.5425 031.4967 0039405 184.7021 225.1850 13.74527464349792
0 POLAR BEAR
1 17070U 86088A   13289.46178569  .00000103  00000-0  96041-4 0  1501
2 17070 089.5425 031.4335 0039534 180.8864 244.8649 13.74527670349979
0 POLAR BEAR
1 17070U 86088A   13290.78138397  .00000126  00000-0  12018-3 0  1510
2 17070 089.5424 031.3700 0039658 177.0030 294.5396 13.74528024350150
0 POLAR BEAR
1 17070U 86088A   13291.81000199  .00000128  00000-0  12192-3 0  1529
2 17070 089.5423 031.3206 0039761 173.9421 344.4124 13.74528239350291
0 POLAR BEAR
1 17070U 86088A   13292.82768240  .00000133  00000-0  12758-3 0  1534
2 17070 089.5421 031.2716 0039873 170.9251 340.1524 13.74528511350432
0 POLAR BEAR
1 17070U 86088A   13293.84674332  .00000122  00000-0  11586-3 0  1542
2 17070 089.5421 031.2225 0039973 167.9226 342.7051 13.74528775350576
0 POLAR BEAR
1 17070U 86088A   13294.86003197  .00000117  00000-0  11073-3 0  1556
2 17070 089.5421 031.1737 0040060 164.9471 316.6866 13.74529150350719
0 POLAR BEAR
1 17070U 86088A   13296.09435516  .00000103  00000-0  96506-4 0  1568
2 17070 089.5422 031.1143 0040166 161.3618 304.3595 13.74529399350888
